LEMUR-1                 
1 40044U 14033AL  22296.49798360  .00001292  00000+0  19316-3 0  9996
2 40044  97.6586 118.1648 0059393 104.0075 256.7748 14.75139795448758
LEMUR-2-XIAOQING        
1 41871U 16062C   22295.81904397  .00048387  00000+0  10382-2 0  9992
2 41871  51.6326  90.3894 0002385   6.7293 353.3725 15.44230110329580
LEMUR-2-SOKOLSKY        
1 41872U 16062D   22296.05314018  .00049597  00000+0  10677-2 0  9996
2 41872  51.6754  99.6281 0002554 227.3831 132.6941 15.44121784329589
LEMUR-2-ANUBHAVTHAKUR   
1 41873U 16062E   22296.31734751  .00010181  00000+0  36136-3 0  9992
2 41873  51.6794 148.0983 0006722  18.4018 341.7205 15.29613859328890
LEMUR-2-WINGO           
1 41874U 16062F   22296.47712800  .00035524  00000+0  80723-3 0  9990
2 41874  51.6445  98.6029 0008978 313.6651  46.3590 15.42631299329544
LEMUR-2-JOBANPUTRA      
1 41991U 17008AV  22296.12098604  .00033598  00000+0  93568-3 0  9992
2 41991  97.2457 355.3137 0007223 132.2002 227.9857 15.36704067315751
LEMUR-2-SPIRE-MINIONS   
1 41992U 17008AW  22296.16825993  .00042100  00000+0  10013-2 0  9998
2 41992  97.2545   0.4520 0005823 121.8727 238.3088 15.41507795316046
LEMUR-2-SATCHMO         
1 41993U 17008AX  22296.12799125  .00024821  00000+0  73015-3 0  9994
2 41993  97.2467 355.6791 0006955 132.8114 227.3715 15.35050725315777
LEMUR-2-SMITA-SHARAD    
1 41994U 17008AY  22296.15558865  .00043054  00000+0  10218-2 0  9996
2 41994  97.2532   0.1963 0005798 122.1897 237.9913 15.41567746316038
LEMUR-2-RDEATON         
1 41995U 17008AZ  22295.71326374  .00017463  00000+0  52065-3 0  9998
2 41995  97.2512 355.5097 0007570 144.0158 216.1596 15.34693231316391
LEMUR-2-TACHIKOMA       
1 41996U 17008BA  22296.13860572  .00043815  00000+0  10731-2 0  9992
2 41996  97.2591   0.4098 0006787 136.9709 223.2069 15.40604299315900
LEMUR-2-NOGUECORREIG    
1 41997U 17008BB  22295.73071369  .00041897  00000+0  99359-3 0  9998
2 41997  97.2561   0.5471 0006503 137.3351 222.8402 15.41592345315981
LEMUR-2-MIA-GRACE       
1 41998U 17008BC  22295.72448848  .00018112  00000+0  54201-3 0  9999
2 41998  97.2479 355.0686 0007512 146.3866 213.7855 15.34568783315610
LEMUR-2-ANGELA          
1 42752U 17019B   22296.50240700  .00041705  00000+0  75768-3 0  9999
2 42752  51.6328 331.6367 0004496 128.6059 231.5333 15.49122713300974
LEMUR-2-JENNYBARNA      
1 42753U 17019C   22296.47427220  .00149812  00000+0  12554-2 0  9991
2 42753  51.6218 295.0757 0005252  96.6660 263.4935 15.68949773301418
LEMUR-2-ROBMOORE        
1 42754U 17019D   22296.48867147  .00027805  00000+0  54123-3 0  9995
2 42754  51.6336 333.7468 0003582 142.7495 217.3742 15.47345524300922
LEMUR-2-SPIROVISION     
1 42755U 17019E   22296.28869383  .00124171  00000+0  11061-2 0  9995
2 42755  51.6299 297.2638 0006042  73.9187  22.5133 15.67544995301286
LEMUR-2-SHAINAJOHL      
1 42771U 17036G   22295.85360934  .00025314  00000+0  76176-3 0  9990
2 42771  97.1889 333.9191 0009694 211.6146 148.4516 15.34305094296496
LEMUR-2-XUENITERENCE    
1 42772U 17036H   22296.07450655  .00033967  00000+0  95110-3 0  9998
2 42772  97.1787 334.3867 0009133 204.4683 155.6129 15.36516285296581
LEMUR-2-LUCYBRYCE       
1 42773U 17036J   22295.66100364  .00019864  00000+0  64888-3 0  9990
2 42773  97.1919 333.6859 0009958 214.7945 145.2647 15.31730383296416
LEMUR-2-KUNGFOO         
1 42774U 17036K   22296.08970513  .00025569  00000+0  75992-3 0  9996
2 42774  97.1879 334.6314 0009230 207.1345 152.9417 15.34701414296553
LEMUR-2-LYNSEY-SYMO     
1 42779U 17036Q   22296.12558270  .00032245  00000+0  85436-3 0  9991
2 42779  97.1903 339.6020 0007795 201.6537 158.4380 15.38252928296837
LEMUR-2-LISASAURUS      
1 42780U 17036R   22295.92685912  .00033984  00000+0  99986-3 0  9990
2 42780  97.1900 335.6455 0007854 216.0798 143.9917 15.34974102296576
LEMUR-2-SAM-AMELIA      
1 42781U 17036S   22295.84769658  .00011394  00000+0  37704-3 0  9993
2 42781  97.1913 336.0537 0008601 217.4503 142.6140 15.31448536296564
LEMUR-2-MCPEAKE         
1 42782U 17036T   22296.37893431  .00024511  00000+0  71386-3 0  9999
2 42782  97.1893 337.8652 0007776 206.7717 153.3126 15.35360745296763
LEMUR-2-GREENBERG       
1 42837U 17042N   22296.12876704  .00003721  00000+0  35132-3 0  9993
2 42837  97.4118 146.6809 0011039 293.2059  66.7999 14.94255251287331
LEMUR-2-ANDIS           
1 42838U 17042P   22295.85614936  .00003627  00000+0  34236-3 0  9999
2 42838  97.4102 146.3530 0011222 293.5387  66.4655 14.94286897287295
LEMUR-2-MONSON          
1 42839U 17042Q   22296.09532370  .00002675  00000+0  25532-3 0  9999
2 42839  97.4121 146.3219 0010881 293.9509  66.0572 14.94059236287302
LEMUR-2-FURIAUS         
1 42840U 17042R   22295.90137696  .00003261  00000+0  31322-3 0  9998
2 42840  97.4157 146.4935 0011379 295.5066  64.4977 14.93659070287276
LEMUR-2-PETERG          
1 42841U 17042S   22296.11117203  .00002085  00000+0  20013-3 0  9993
2 42841  97.4176 147.8584 0010897 289.7042  70.3003 14.94053807287370
LEMUR-2-DEMBITZ         
1 42842U 17042T   22296.33787365  .00004177  00000+0  39161-3 0  9998
2 42842  97.4146 147.9476 0010630 288.9806  71.0263 14.94480609287418
LEMUR-2-ZACHARY         
1 42845U 17042W   22296.41545897  .00005148  00000+0  47184-3 0  9995
2 42845  97.4038 147.1595 0010542 289.8977  70.1109 14.95274956287478
LEMUR-2-MCCAFFERTY      
1 43123U 18004N   22295.79802876  .00040462  00000+0  95610-3 0  9992
2 43123  97.3684  15.8075 0005462 242.6394 117.4297 15.41716321266157
LEMUR-2-PETERWEBSTER    
1 43124U 18004P   22296.19653788  .00044517  00000+0  10739-2 0  9997
2 43124  97.3681  15.7576 0005739 244.0351 116.0304 15.41067711266185
LEMUR-2-BROWNCOW        
1 43125U 18004Q   22295.78212012  .00048204  00000+0  10602-2 0  9999
2 43125  97.3743  17.4606 0005591 237.6970 122.3737 15.43823943266234
LEMUR-2-DAVEWILSON      
1 43126U 18004R   22296.19563303  .00055338  00000+0  11941-2 0  9991
2 43126  97.3729  17.7240 0005620 238.8485 121.2212 15.44355797266293
LEMUR-2-MARSHALL        
1 43165U 18010C   22296.30236541  .00017670  00000+0  54912-3 0  9998
2 43165  82.9094 304.5989 0022831 231.0099 128.9111 15.32957348264047
LEMUR-2-TALLHAMN-ATC    
1 43167U 18010E   22296.08154481  .00017934  00000+0  63578-3 0  9998
2 43167  82.9140 311.5964 0017472 260.5911  99.3355 15.28821311263592
LEMUR-2-JIN-LUEN        
1 43182U 18014C   22295.71126538  .00003693  00000+0  30080-3 0  9999
2 43182  97.6314 197.1221 0013857 237.2668 122.7220 15.00045373257964
LEMUR-2-URAMCHANSOL     
1 43183U 18014D   22295.72170829  .00005599  00000+0  45195-3 0  9993
2 43183  97.6316 197.3576 0014716 225.8896 134.1118 15.00166985257970
LEMUR-2-KADI            
1 43184U 18014E   22296.26085108  .00005168  00000+0  42398-3 0  9993
2 43184  97.6324 197.7002 0012939 225.6702 134.3462 14.99594318258042
LEMUR-2-THENICKMOLO     
1 43185U 18014F   22296.28115130  .00007111  00000+0  57737-3 0  9998
2 43185  97.6384 197.9894 0009433 217.4559 142.6008 14.99893215258051
LEMUR-2-VU              
1 43558U 18046E   22296.13275009  .00088476  00000+0  11538-2 0  9994
2 43558  51.6337 252.6361 0009042 129.2092 230.9705 15.57910024239360
LEMUR-2-ALEXANDER       
1 43559U 18046F   22295.88432465  .00149170  00000+0  16434-2 0  9996
2 43559  51.6369 250.2714 0007593 136.3944 223.7652 15.62085696239158
LEMUR-2-YUASA           
1 43560U 18046G   22296.16570888  .00121286  00000+0  14281-2 0  9998
2 43560  51.6378 252.1288 0007443 142.0593 218.0926 15.60471448239372
LEMUR-2-TOMHENDERSON    
1 43561U 18046H   22296.12802756  .00073973  00000+0  10773-2 0  9998
2 43561  51.6387 257.8290 0007907 133.3919 226.7731 15.55022133238857
LEMUR-2-ZUPANSKI        
1 43695U 18088F   22296.23051338  .00027777  00000+0  88230-3 0  9991
2 43695  85.0299 227.9094 0014230  37.5313 322.6925 15.32410435219411
LEMUR-2-CHANUSIAK       
1 43697U 18088H   22296.15977872  .00034300  00000+0  10379-2 0  9992
2 43697  85.0356 227.9284 0012498  18.6378 341.5326 15.33961432219563
LEMUR-2-ORZULAK         
1 43731U 18096N   22295.75007840  .00100740  00000+0  14659-2 0  9991
2 43731  97.3588  23.0114 0012919 293.2077  66.7817 15.55311092217943
LEMUR-2-KOBYSZCZE       
1 43732U 18096P   22295.97826332  .00098061  00000+0  14038-2 0  9994
2 43732  97.3611  23.7753 0012604 294.2966  65.6972 15.55770851218006
LEMUR-2-DULY            
1 43745U 18096AC  22296.18013575  .00071716  00000+0  11512-2 0  9991
2 43745  97.3585  23.3733 0012391 297.3554  62.6437 15.52719599218017
LEMUR-2-VLADIMIR        
1 43746U 18096AD  22296.17695110  .00125121  00000+0  15194-2 0  9992
2 43746  97.3580  24.7139 0013532 291.0453  68.9357 15.60067378218127
LEMUR-2-CHRISTINAHOLT   
1 43882U 18111G   22296.47814646  .00006008  00000+0  48190-3 0  9996
2 43882  97.6591 202.1711 0007265 204.9329 155.1545 15.00443331206959
LEMUR-2-TINYKEV         
1 43883U 18111H   22296.19251905  .00008094  00000+0  63941-3 0  9997
2 43883  97.6542 202.1185 0013044 209.4683 150.5807 15.00872547206928
LEMUR-2-REMY-COLTON     
1 43884U 18111J   22296.47497163  .00005896  00000+0  46763-3 0  9997
2 43884  97.6601 202.9352 0002680 335.8418  24.2680 15.00896863206993
LEMUR-2-GUSTAVO         
1 43885U 18111K   22295.80159551  .00006118  00000+0  48980-3 0  9991
2 43885  97.6593 201.8843 0012264 218.3786 141.6566 15.00473058208861
LEMUR-2-ZO              
1 43886U 18111L   22295.71982153  .00004915  00000+0  39315-3 0  9999
2 43886  97.6632 202.1225 0015429 242.8617 117.1033 15.00567768208864
LEMUR-2-NATALIEMURRAY   
1 43887U 18111M   22296.27268071  .00006768  00000+0  53836-3 0  9990
2 43887  97.6609 202.9710 0007946 182.7926 177.3255 15.00711607208964
LEMUR-2-SARAHBETTYBOO   
1 43888U 18111N   22296.22996530  .00007793  00000+0  61685-3 0  9994
2 43888  97.6737 203.1964 0010772 283.5883  76.4141 15.00831505208967
LEMUR-2-DAISY-HARPER    
1 43889U 18111P   22296.22642063  .00007659  00000+0  60598-3 0  9997
2 43889  97.6713 203.3873 0009776 291.4644  68.5537 15.00863605208965
